{"type": "FeatureCollection", "name": "arda_places_ta", "crs": {"type": "name", "properties": {"name": "urn:ogc:def:crs:OGC:1.3:CRS84"}}, "features": [{"type": "Feature", "geometry": {"type": "Point", "coordinates": [8.3507, 42.1285]}, "properties": {"id": "anfalas", "name": "Anfalas", "types": "POLITY_SUBREGION", "ages": "TA", "parents": "gondor", "name_conf": null, "place_conf": "H", "frame_x": 520, "frame_y": 225}}, {"type": "Feature", "geometry": {"type": "Point", "coordinates": [-1.1149, 53.4899]}, "properties": {"id": "annuminas", "name": "Annúminas", "types": "MAN_MADE_CITY,MAN_MADE_RUIN", "ages": "TA", "parents": "arthedain,arnor,reunited", "name_conf": null, "place_conf": "H", "frame_x": 222, "frame_y": 748}}, {"type": "Feature", "geometry": {"type": "Point", "coordinates": [13.0238, 43.7578]}, "properties": {"id": "anorien", "name": "Anórien", "types": "POLITY_SUBREGION", "ages": "TA", "parents": "gondor", "name_conf": "H", "place_conf": "H", "frame_x": 660, "frame_y": 300}}, {"type": "Feature", "geometry": {"type": "Point", "coordinates": [11.3224, 41.6941]}, "properties": {"id": "belfalas", "name": "Belfalas", "types": "POLITY_SUBREGION", "ages": "TA", "parents": "gondor", "name_conf": null, "place_conf": "H", "frame_x": 615, "frame_y": 205}}, {"type": "Feature", "geometry": {"type": "Point", "coordinates": [10.3058, 52.4471]}, "properties": {"id": "beorn s house", "name": "Beorn's house", "types": "MAN_MADE_DWELLING", "ages": "TA", "parents": "", "name_conf": null, "place_conf": "H", "frame_x": 545, "frame_y": 700}}, {"type": "Feature", "geometry": {"type": "Point", "coordinates": [-5.3085, 53.6419]}, "properties": {"id": "blue mtn dwarf halls", "name": "Blue Mtn dwarf-halls", "types": "MAN_MADE_MANSION,MAN_MADE_HALL,NATURAL_PEAK", "ages": "TA", "parents": "", "name_conf": null, "place_conf": "H", "frame_x": 105, "frame_y": 755}}, {"type": "Feature", "geometry": {"type": "Point", "coordinates": [-0.2416, 51.6434]}, "properties": {"id": "brandywine bridge", "name": "Brandywine Bridge", "types": "MAN_MADE_BRIDGE", "ages": "TA", "parents": "the shire", "name_conf": null, "place_conf": "H", "frame_x": 247, "frame_y": 663}}, {"type": "Feature", "geometry": {"type": "Point", "coordinates": [0.6799, 52.1213]}, "properties": {"id": "bree", "name": "Bree", "types": "MAN_MADE_TOWN,MAN_MADE_CITY", "ages": "SA,TA", "parents": "", "name_conf": null, "place_conf": "H", "frame_x": 273, "frame_y": 685}}, {"type": "Feature", "geometry": {"type": "Point", "coordinates": [-0.2433, 51.4913]}, "properties": {"id": "bucklebury ferry", "name": "Bucklebury + Ferry", "types": "MAN_MADE_TOWN", "ages": "TA", "parents": "the shire", "name_conf": null, "place_conf": "H", "frame_x": 247, "frame_y": 656}}, {"type": "Feature", "geometry": {"type": "Point", "coordinates": [-1.1879, 51.7086]}, "properties": {"id": "bywater", "name": "Bywater", "types": "MAN_MADE_VILLAGE", "ages": "TA", "parents": "the shire", "name_conf": null, "place_conf": "H", "frame_x": 220, "frame_y": 666}}, {"type": "Feature", "geometry": {"type": "Point", "coordinates": [15.5267, 43.6492]}, "properties": {"id": "cair andros", "name": "Cair Andros", "types": "NATURAL_ISLAND,MAN_MADE_FORTRESS", "ages": "TA", "parents": "gondor", "name_conf": "H", "place_conf": "H", "frame_x": 738, "frame_y": 295}}, {"type": "Feature", "geometry": {"type": "Point", "coordinates": [9.9031, 43.2799]}, "properties": {"id": "calembel", "name": "Calembel", "types": "MAN_MADE_TOWN", "ages": "TA", "parents": "", "name_conf": null, "place_conf": "H", "frame_x": 565, "frame_y": 278}}, {"type": "Feature", "geometry": {"type": "Point", "coordinates": [9.8141, 49.0149]}, "properties": {"id": "caras galadhon", "name": "Caras Galadhon", "types": "MAN_MADE_CITY", "ages": "TA", "parents": "lothlorien", "name_conf": null, "place_conf": "H", "frame_x": 543, "frame_y": 542}}, {"type": "Feature", "geometry": {"type": "Point", "coordinates": [8.4658, 55.0105]}, "properties": {"id": "carn dum", "name": "Carn Dûm", "types": "MAN_MADE_FORTRESS,NATURAL_PEAK", "ages": "TA", "parents": "angmar", "name_conf": "H", "place_conf": "M", "frame_x": 485, "frame_y": 818}}, {"type": "Feature", "geometry": {"type": "Point", "coordinates": [15.8287, 43.1278]}, "properties": {"id": "causeway forts", "name": "Causeway Forts", "types": "MAN_MADE_FORTRESS", "ages": "TA", "parents": "", "name_conf": null, "place_conf": "H", "frame_x": 750, "frame_y": 271}}, {"type": "Feature", "geometry": {"type": "Point", "coordinates": [9.727, 49.1452]}, "properties": {"id": "cerin amroth", "name": "Cerin Amroth", "types": "MAN_MADE_LANDMARK", "ages": "FoA,TA", "parents": "lothlorien", "name_conf": null, "place_conf": "H", "frame_x": 540, "frame_y": 548}}, {"type": "Feature", "geometry": {"type": "Point", "coordinates": [-0.1378, 51.5348]}, "properties": {"id": "crickhollow", "name": "Crickhollow", "types": "MAN_MADE_DWELLING", "ages": "TA", "parents": "", "name_conf": null, "place_conf": "H", "frame_x": 250, "frame_y": 658}}, {"type": "Feature", "geometry": {"type": "Point", "coordinates": [17.7542, 53.7071]}, "properties": {"id": "dale", "name": "Dale", "types": "MAN_MADE_TOWN,NATURAL_VALLEY,MAN_MADE_CITY", "ages": "TA", "parents": "", "name_conf": "H", "place_conf": "H", "frame_x": 748, "frame_y": 758}}, {"type": "Feature", "geometry": {"type": "Point", "coordinates": [11.4172, 41.151]}, "properties": {"id": "dol amroth", "name": "Dol Amroth", "types": "MAN_MADE_CITY,MAN_MADE_HAVEN", "ages": "TA", "parents": "gondor", "name_conf": null, "place_conf": "H", "frame_x": 620, "frame_y": 180}}, {"type": "Feature", "geometry": {"type": "Point", "coordinates": [11.7979, 49.319]}, "properties": {"id": "dol guldur", "name": "Dol Guldur", "types": "MAN_MADE_FORTRESS,MAN_MADE_TOWER", "ages": "TA", "parents": "mirkwood", "name_conf": null, "place_conf": "H", "frame_x": 600, "frame_y": 556}}, {"type": "Feature", "geometry": {"type": "Point", "coordinates": [11.8109, 41.8027]}, "properties": {"id": "dor en ernil", "name": "Dor-en-Ernil", "types": "POLITY_SUBREGION", "ages": "TA", "parents": "gondor", "name_conf": null, "place_conf": "H", "frame_x": 630, "frame_y": 210}}, {"type": "Feature", "geometry": {"type": "Point", "coordinates": [9.1106, 44.6919]}, "properties": {"id": "dunharrow", "name": "Dunharrow", "types": "MAN_MADE_REFUGE,MAN_MADE_FORTRESS", "ages": "TA", "parents": "rohan", "name_conf": "H", "place_conf": "H", "frame_x": 536, "frame_y": 343}}, {"type": "Feature", "geometry": {"type": "Point", "coordinates": [8.8547, 49.6014]}, "properties": {"id": "durin s stone", "name": "Durin's Stone", "types": "MAN_MADE_LANDMARK", "ages": "TA", "parents": "khazaddum", "name_conf": null, "place_conf": "M", "frame_x": 513, "frame_y": 569}}, {"type": "Feature", "geometry": {"type": "Point", "coordinates": [16.9321, 44.6702]}, "properties": {"id": "durthang", "name": "Durthang", "types": "MAN_MADE_FORTRESS", "ages": "TA", "parents": "", "name_conf": null, "place_conf": "H", "frame_x": 776, "frame_y": 342}}, {"type": "Feature", "geometry": {"type": "Point", "coordinates": [8.7669, 51.9692]}, "properties": {"id": "eagles eyrie", "name": "Eagles' Eyrie", "types": "MAN_MADE_LANDMARK", "ages": "TA", "parents": "", "name_conf": null, "place_conf": "M", "frame_x": 503, "frame_y": 678}}, {"type": "Feature", "geometry": {"type": "Point", "coordinates": [10.6028, 46.5818]}, "properties": {"id": "east emnet", "name": "East-Emnet", "types": "POLITY_SUBREGION", "ages": "TA", "parents": "rohan", "name_conf": null, "place_conf": "H", "frame_x": 575, "frame_y": 430}}, {"type": "Feature", "geometry": {"type": "Point", "coordinates": [10.2241, 44.7353]}, "properties": {"id": "eastfold", "name": "Eastfold", "types": "POLITY_SUBREGION", "ages": "TA", "parents": "rohan", "name_conf": null, "place_conf": "H", "frame_x": 570, "frame_y": 345}}, {"type": "Feature", "geometry": {"type": "Point", "coordinates": [11.5057, 41.3682]}, "properties": {"id": "edhellond", "name": "Edhellond", "types": "MAN_MADE_HAVEN", "ages": "TA", "parents": "", "name_conf": null, "place_conf": "H", "frame_x": 622, "frame_y": 190}}, {"type": "Feature", "geometry": {"type": "Point", "coordinates": [9.039, 44.9526]}, "properties": {"id": "edoras", "name": "Edoras", "types": "MAN_MADE_CITY,NATURAL_PEAK,MAN_MADE_TOWN", "ages": "TA", "parents": "rohan", "name_conf": "H", "place_conf": "H", "frame_x": 533, "frame_y": 355}}, {"type": "Feature", "geometry": {"type": "Point", "coordinates": [-3.7482, 51.7086]}, "properties": {"id": "elostirion tower", "name": "Elostirion tower", "types": "MAN_MADE_TOWER", "ages": "TA", "parents": "", "name_conf": null, "place_conf": "H", "frame_x": 147, "frame_y": 666}}, {"type": "Feature", "geometry": {"type": "Point", "coordinates": [15.9894, 53.4899]}, "properties": {"id": "elvenking s halls", "name": "Elvenking's Halls", "types": "MAN_MADE_CITY,MAN_MADE_HALL,NATURAL_RIVER", "ages": "TA", "parents": "mirkwood", "name_conf": null, "place_conf": "H", "frame_x": 700, "frame_y": 748}}, {"type": "Feature", "geometry": {"type": "Point", "coordinates": [17.7468, 53.8374]}, "properties": {"id": "erebor", "name": "Erebor", "types": "MAN_MADE_CITY,NATURAL_PEAK,MAN_MADE_GATE", "ages": "TA", "parents": "dale", "name_conf": "H", "place_conf": "H", "frame_x": 747, "frame_y": 764}}, {"type": "Feature", "geometry": {"type": "Point", "coordinates": [17.7653, 53.0989]}, "properties": {"id": "esgaroth", "name": "Esgaroth (Lake-town)", "types": "MAN_MADE_TOWN,NATURAL_LAKE,MAN_MADE_CITY", "ages": "TA", "parents": "dale", "name_conf": null, "place_conf": "H", "frame_x": 752, "frame_y": 730}}, {"type": "Feature", "geometry": {"type": "Point", "coordinates": [6.5025, 45.1264]}, "properties": {"id": "fords of isen", "name": "Fords of Isen", "types": "MAN_MADE_CROSSING,NATURAL_ISLAND", "ages": "TA", "parents": "rohan", "name_conf": "High", "place_conf": "H", "frame_x": 455, "frame_y": 363}}, {"type": "Feature", "geometry": {"type": "Point", "coordinates": [-7.3345, 51.8389]}, "properties": {"id": "forlond", "name": "Forlond", "types": "MAN_MADE_HAVEN", "ages": "TA", "parents": "", "name_conf": null, "place_conf": "M", "frame_x": 45, "frame_y": 672}}, {"type": "Feature", "geometry": {"type": "Point", "coordinates": [0.6046, 53.5768]}, "properties": {"id": "fornost", "name": "Fornost", "types": "MAN_MADE_RUIN,MAN_MADE_CITY", "ages": "TA", "parents": "arthedain", "name_conf": null, "place_conf": "H", "frame_x": 270, "frame_y": 752}}, {"type": "Feature", "geometry": {"type": "Point", "coordinates": [1.1022, 52.0996]}, "properties": {"id": "forsaken inn", "name": "Forsaken Inn", "types": "MAN_MADE_DWELLING", "ages": "TA", "parents": "", "name_conf": null, "place_conf": "M", "frame_x": 285, "frame_y": 684}}, {"type": "Feature", "geometry": {"type": "Point", "coordinates": [10.4899, 55.1626]}, "properties": {"id": "framsburg", "name": "Framsburg", "types": "MAN_MADE_RUIN", "ages": "TA", "parents": "eotheod", "name_conf": "H", "place_conf": "M", "frame_x": 540, "frame_y": 825}}, {"type": "Feature", "geometry": {"type": "Point", "coordinates": [-0.7672, 51.6651]}, "properties": {"id": "frogmorton", "name": "Frogmorton", "types": "MAN_MADE_VILLAGE", "ages": "TA", "parents": "the shire", "name_conf": null, "place_conf": "H", "frame_x": 232, "frame_y": 664}}, {"type": "Feature", "geometry": {"type": "Point", "coordinates": [8.4293, 51.7737]}, "properties": {"id": "goblin gate", "name": "Goblin-gate (High Pass)", "types": "MAN_MADE_GATE,NATURAL_PASS", "ages": "TA", "parents": "", "name_conf": null, "place_conf": "M", "frame_x": 494, "frame_y": 669}}, {"type": "Feature", "geometry": {"type": "Point", "coordinates": [17.6464, 44.3009]}, "properties": {"id": "gorgoroth", "name": "Gorgoroth", "types": "POLITY_SUBREGION", "ages": "TA", "parents": "mordor", "name_conf": "H", "place_conf": "H", "frame_x": 800, "frame_y": 325}}, {"type": "Feature", "geometry": {"type": "Point", "coordinates": [-7.0368, 51.5782]}, "properties": {"id": "grey havens", "name": "Grey Havens (Mithlond)", "types": "MAN_MADE_HAVEN", "ages": "TA", "parents": "lindon", "name_conf": null, "place_conf": "H", "frame_x": 53, "frame_y": 660}}, {"type": "Feature", "geometry": {"type": "Point", "coordinates": [11.3124, 44.3009]}, "properties": {"id": "halifirien hallow", "name": "Halifirien hallow", "types": "MAN_MADE_HALLOW", "ages": "TA", "parents": "", "name_conf": null, "place_conf": "H", "frame_x": 605, "frame_y": 325}}, {"type": "Feature", "geometry": {"type": "Point", "coordinates": [15.6688, 42.9323]}, "properties": {"id": "harlond gondor quays", "name": "Harlond (Gondor quays)", "types": "MAN_MADE_HAVEN", "ages": "TA", "parents": "gondor", "name_conf": null, "place_conf": "H", "frame_x": 746, "frame_y": 262}}, {"type": "Feature", "geometry": {"type": "Point", "coordinates": [-7.2997, 51.3175]}, "properties": {"id": "harlond lindon", "name": "Harlond (Lindon)", "types": "MAN_MADE_HAVEN", "ages": "TA", "parents": "lindon", "name_conf": null, "place_conf": "M", "frame_x": 45, "frame_y": 648}}, {"type": "Feature", "geometry": {"type": "Point", "coordinates": [16.3197, 43.7578]}, "properties": {"id": "henneth annun", "name": "Henneth Annûn", "types": "MAN_MADE_REFUGE,MAN_MADE_HALL", "ages": "TA", "parents": "mordor", "name_conf": null, "place_conf": "H", "frame_x": 762, "frame_y": 300}}, {"type": "Feature", "geometry": {"type": "Point", "coordinates": [-1.258, 51.752]}, "properties": {"id": "hobbiton bag end", "name": "Hobbiton + Bag End", "types": "MAN_MADE_TOWN,MAN_MADE_CITY", "ages": "TA", "parents": "the shire", "name_conf": null, "place_conf": "H", "frame_x": 218, "frame_y": 668}}, {"type": "Feature", "geometry": {"type": "Point", "coordinates": [7.4888, 44.4095]}, "properties": {"id": "hornburg helm s deep", "name": "Hornburg/Helm's Deep", "types": "MAN_MADE_FORTRESS", "ages": "TA", "parents": "", "name_conf": null, "place_conf": "H", "frame_x": 487, "frame_y": 330}}, {"type": "Feature", "geometry": {"type": "Point", "coordinates": [6.7038, 45.6043]}, "properties": {"id": "isengard", "name": "Isengard", "types": "MAN_MADE_TOWER,MAN_MADE_FORTRESS", "ages": "TA", "parents": "rohan", "name_conf": "H", "place_conf": "H", "frame_x": 460, "frame_y": 385}}, {"type": "Feature", "geometry": {"type": "Point", "coordinates": [17.1408, 44.5616]}, "properties": {"id": "isenmouthe", "name": "Isenmouthe", "types": "MAN_MADE_GATE", "ages": "TA", "parents": "", "name_conf": null, "place_conf": "H", "frame_x": 783, "frame_y": 337}}, {"type": "Feature", "geometry": {"type": "Point", "coordinates": [16.2004, 43.4319]}, "properties": {"id": "ithilien", "name": "Ithilien", "types": "POLITY_SUBREGION,NATURAL_FOREST", "ages": "TA", "parents": "gondor", "name_conf": "H", "place_conf": "H", "frame_x": 760, "frame_y": 285}}, {"type": "Feature", "geometry": {"type": "Point", "coordinates": [9.7582, 43.4319]}, "properties": {"id": "lamedon", "name": "Lamedon", "types": "POLITY_SUBREGION", "ages": "TA", "parents": "gondor", "name_conf": null, "place_conf": "H", "frame_x": 560, "frame_y": 285}}, {"type": "Feature", "geometry": {"type": "Point", "coordinates": [4.9605, 51.8606]}, "properties": {"id": "last bridge", "name": "Last Bridge", "types": "MAN_MADE_BRIDGE", "ages": "TA", "parents": "", "name_conf": null, "place_conf": "H", "frame_x": 395, "frame_y": 673}}, {"type": "Feature", "geometry": {"type": "Point", "coordinates": [12.8194, 42.2372]}, "properties": {"id": "lebennin", "name": "Lebennin", "types": "POLITY_SUBREGION", "ages": "TA", "parents": "gondor", "name_conf": null, "place_conf": "H", "frame_x": 660, "frame_y": 230}}, {"type": "Feature", "geometry": {"type": "Point", "coordinates": [12.5032, 41.7592]}, "properties": {"id": "linhir", "name": "Linhir", "types": "MAN_MADE_CROSSING,MAN_MADE_TOWN", "ages": "TA", "parents": "", "name_conf": null, "place_conf": "H", "frame_x": 652, "frame_y": 208}}, {"type": "Feature", "geometry": {"type": "Point", "coordinates": [20.2676, 44.4095]}, "properties": {"id": "lithlad", "name": "Lithlad", "types": "POLITY_SUBREGION", "ages": "TA", "parents": "mordor", "name_conf": "H", "place_conf": "H", "frame_x": 880, "frame_y": 330}}, {"type": "Feature", "geometry": {"type": "Point", "coordinates": [-1.5253, 47.1249]}, "properties": {"id": "lond daer", "name": "Lond Daer", "types": "MAN_MADE_HAVEN", "ages": "TA", "parents": "", "name_conf": "H", "place_conf": "H", "frame_x": 210, "frame_y": 455}}, {"type": "Feature", "geometry": {"type": "Point", "coordinates": [-2.4841, 51.5999]}, "properties": {"id": "michel delving", "name": "Michel Delving", "types": "MAN_MADE_TOWN,MAN_MADE_CITY", "ages": "TA", "parents": "the shire", "name_conf": null, "place_conf": "H", "frame_x": 183, "frame_y": 661}}, {"type": "Feature", "geometry": {"type": "Point", "coordinates": [16.7305, 42.954]}, "properties": {"id": "minas morgul", "name": "Minas Morgul", "types": "MAN_MADE_CITY,MAN_MADE_TOWER", "ages": "TA", "parents": "mordor", "name_conf": "H", "place_conf": "H", "frame_x": 779, "frame_y": 263}}, {"type": "Feature", "geometry": {"type": "Point", "coordinates": [15.6256, 43.0626]}, "properties": {"id": "minas tirith", "name": "Minas Tirith", "types": "MAN_MADE_CITY,MAN_MADE_WALL", "ages": "TA", "parents": "gondor", "name_conf": "H", "place_conf": "H", "frame_x": 744, "frame_y": 268}}, {"type": "Feature", "geometry": {"type": "Point", "coordinates": [8.8275, 49.6666]}, "properties": {"id": "moria east gate dimrill", "name": "Moria East-gate/Dimrill", "types": "MAN_MADE_GATE", "ages": "TA", "parents": "", "name_conf": null, "place_conf": "H", "frame_x": 512, "frame_y": 572}}, {"type": "Feature", "geometry": {"type": "Point", "coordinates": [8.0858, 49.7969]}, "properties": {"id": "moria west door", "name": "Moria West-door", "types": "MAN_MADE_GATE", "ages": "TA", "parents": "", "name_conf": null, "place_conf": "H", "frame_x": 490, "frame_y": 578}}, {"type": "Feature", "geometry": {"type": "Point", "coordinates": [19.0861, 41.6941]}, "properties": {"id": "nurn", "name": "Nurn", "types": "POLITY_SUBREGION", "ages": "TA", "parents": "mordor", "name_conf": "H", "place_conf": "H", "frame_x": 860, "frame_y": 205}}, {"type": "Feature", "geometry": {"type": "Point", "coordinates": [9.678, 52.2299]}, "properties": {"id": "old ford", "name": "Old Ford", "types": "MAN_MADE_CROSSING", "ages": "TA", "parents": "", "name_conf": null, "place_conf": "H", "frame_x": 528, "frame_y": 690}}, {"type": "Feature", "geometry": {"type": "Point", "coordinates": [15.8788, 43.0409]}, "properties": {"id": "osgiliath", "name": "Osgiliath", "types": "MAN_MADE_CITY,MAN_MADE_RUIN", "ages": "TA", "parents": "gondor", "name_conf": "H", "place_conf": "H", "frame_x": 752, "frame_y": 267}}, {"type": "Feature", "geometry": {"type": "Point", "coordinates": [7.6193, 49.949]}, "properties": {"id": "ost in edhil", "name": "Ost-in-Edhil", "types": "MAN_MADE_RUIN", "ages": "TA", "parents": "", "name_conf": null, "place_conf": "H", "frame_x": 476, "frame_y": 585}}, {"type": "Feature", "geometry": {"type": "Point", "coordinates": [14.7287, 41.5855]}, "properties": {"id": "pelargir", "name": "Pelargir", "types": "MAN_MADE_HAVEN", "ages": "SA,TA", "parents": "gondor", "name_conf": "H", "place_conf": "H", "frame_x": 723, "frame_y": 200}}, {"type": "Feature", "geometry": {"type": "Point", "coordinates": [16.2872, 42.0199]}, "properties": {"id": "poros march", "name": "Poros-March", "types": "POLITY_SUBREGION", "ages": "TA", "parents": "gondor", "name_conf": null, "place_conf": "H", "frame_x": 770, "frame_y": 220}}, {"type": "Feature", "geometry": {"type": "Point", "coordinates": [11.2606, 52.4471]}, "properties": {"id": "rhosgobel", "name": "Rhosgobel", "types": "MAN_MADE_DWELLING,MAN_MADE_HALL", "ages": "TA", "parents": "mirkwood", "name_conf": null, "place_conf": "M", "frame_x": 572, "frame_y": 700}}, {"type": "Feature", "geometry": {"type": "Point", "coordinates": [8.0193, 51.8823]}, "properties": {"id": "rivendell", "name": "Rivendell (Imladris)", "types": "MAN_MADE_REFUGE,MAN_MADE_HALL", "ages": "FoA,SA,TA", "parents": "", "name_conf": "H", "place_conf": "H", "frame_x": 482, "frame_y": 674}}, {"type": "Feature", "geometry": {"type": "Point", "coordinates": [18.0362, 43.7795]}, "properties": {"id": "sammath naur", "name": "Sammath Naur", "types": "MAN_MADE_GATE", "ages": "TA", "parents": "", "name_conf": null, "place_conf": "H", "frame_x": 815, "frame_y": 301}}, {"type": "Feature", "geometry": {"type": "Point", "coordinates": [-0.6694, 50.5355]}, "properties": {"id": "sarn ford", "name": "Sarn Ford", "types": "MAN_MADE_CROSSING", "ages": "TA", "parents": "", "name_conf": null, "place_conf": "H", "frame_x": 235, "frame_y": 612}}, {"type": "Feature", "geometry": {"type": "Point", "coordinates": [-0.3835, 51.4696]}, "properties": {"id": "stock", "name": "Stock", "types": "MAN_MADE_VILLAGE", "ages": "TA", "parents": "the shire", "name_conf": null, "place_conf": "H", "frame_x": 243, "frame_y": 655}}, {"type": "Feature", "geometry": {"type": "Point", "coordinates": [8.855, 44.0836]}, "properties": {"id": "stone of erech", "name": "Stone of Erech", "types": "MAN_MADE_MONUMENT,NATURAL_PEAK", "ages": "TA", "parents": "gondor", "name_conf": null, "place_conf": "H", "frame_x": 530, "frame_y": 315}}, {"type": "Feature", "geometry": {"type": "Point", "coordinates": [1.5172, 48.3849]}, "properties": {"id": "tharbad", "name": "Tharbad", "types": "MAN_MADE_CROSSING,MAN_MADE_TOWN,MAN_MADE_RUIN", "ages": "TA", "parents": "cardolan,dunland", "name_conf": "H", "place_conf": "H", "frame_x": 300, "frame_y": 513}}, {"type": "Feature", "geometry": {"type": "Point", "coordinates": [16.2996, 43.0626]}, "properties": {"id": "the crossroads", "name": "The Crossroads", "types": "MAN_MADE_LANDMARK", "ages": "TA", "parents": "", "name_conf": null, "place_conf": "H", "frame_x": 765, "frame_y": 268}}, {"type": "Feature", "geometry": {"type": "Point", "coordinates": [16.8401, 44.8874]}, "properties": {"id": "the morannon", "name": "The Morannon (Black Gate)", "types": "MAN_MADE_TOWER,MAN_MADE_GATE,MAN_MADE_FORTRESS", "ages": "TA", "parents": "gondor", "name_conf": null, "place_conf": "H", "frame_x": 772, "frame_y": 352}}, {"type": "Feature", "geometry": {"type": "Point", "coordinates": [10.2567, 47.8852]}, "properties": {"id": "the wold", "name": "The Wold", "types": "POLITY_SUBREGION", "ages": "TA", "parents": "rohan", "name_conf": null, "place_conf": "H", "frame_x": 560, "frame_y": 490}}, {"type": "Feature", "geometry": {"type": "Point", "coordinates": [-0.9775, 51.6868]}, "properties": {"id": "three farthing stone", "name": "Three-Farthing Stone", "types": "MAN_MADE_LANDMARK", "ages": "TA", "parents": "the shire", "name_conf": null, "place_conf": "H", "frame_x": 226, "frame_y": 665}}, {"type": "Feature", "geometry": {"type": "Point", "coordinates": [0.3147, 51.3827]}, "properties": {"id": "tom bombadil s house", "name": "Tom Bombadil's house", "types": "MAN_MADE_DWELLING", "ages": "TA", "parents": "", "name_conf": null, "place_conf": "H", "frame_x": 263, "frame_y": 651}}, {"type": "Feature", "geometry": {"type": "Point", "coordinates": [16.8699, 43.0192]}, "properties": {"id": "tower of cirith ungol", "name": "Tower of Cirith Ungol", "types": "MAN_MADE_FORTRESS,MAN_MADE_TOWER", "ages": "TA", "parents": "", "name_conf": null, "place_conf": "H", "frame_x": 783, "frame_y": 266}}, {"type": "Feature", "geometry": {"type": "Point", "coordinates": [5.5561, 51.8389]}, "properties": {"id": "trolls clearing", "name": "Trolls' clearing (Hobbit)", "types": "MAN_MADE_LANDMARK", "ages": "TA", "parents": "", "name_conf": null, "place_conf": "M", "frame_x": 412, "frame_y": 672}}, {"type": "Feature", "geometry": {"type": "Point", "coordinates": [-1.1181, 51.4696]}, "properties": {"id": "tuckborough great smials", "name": "Tuckborough/Great Smials", "types": "MAN_MADE_TOWN", "ages": "TA", "parents": "the shire", "name_conf": null, "place_conf": "H", "frame_x": 222, "frame_y": 655}}, {"type": "Feature", "geometry": {"type": "Point", "coordinates": [15.4948, 37.8925]}, "properties": {"id": "umbar", "name": "Umbar", "types": "MAN_MADE_HAVEN", "ages": "SA,TA", "parents": "", "name_conf": "H", "place_conf": "M", "frame_x": 765, "frame_y": 30}}, {"type": "Feature", "geometry": {"type": "Point", "coordinates": [-3.6419, 51.6651]}, "properties": {"id": "undertowers", "name": "Undertowers", "types": "MAN_MADE_TOWN", "ages": "TA", "parents": "", "name_conf": null, "place_conf": "H", "frame_x": 150, "frame_y": 664}}, {"type": "Feature", "geometry": {"type": "Point", "coordinates": [9.3933, 46.1474]}, "properties": {"id": "west emnet", "name": "West-Emnet", "types": "POLITY_SUBREGION", "ages": "TA", "parents": "rohan", "name_conf": null, "place_conf": "H", "frame_x": 540, "frame_y": 410}}, {"type": "Feature", "geometry": {"type": "Point", "coordinates": [7.9407, 44.7353]}, "properties": {"id": "westfold", "name": "Westfold", "types": "POLITY_SUBREGION", "ages": "TA", "parents": "rohan", "name_conf": null, "place_conf": "H", "frame_x": 500, "frame_y": 345}}, {"type": "Feature", "geometry": {"type": "Point", "coordinates": [-0.5938, 51.4044]}, "properties": {"id": "woodhall woody end", "name": "Woodhall/Woody End", "types": "POLITY_SUBREGION", "ages": "TA", "parents": "the shire", "name_conf": null, "place_conf": "H", "frame_x": 237, "frame_y": 652}}]}